MTI                     
1 26102U 00014A   18114.53137876  .00005463  00000-0  99449-4 0  9998
2 26102  97.5844 305.9767 0006001 215.3170 202.8702 15.49945057  2713
CFESAT                  
1 30777U 07006F   18113.86954398  .00002753  00000-0  85760-4 0  9990
2 30777  35.4259 279.1331 0006693 276.3306  83.6658 15.33014682615686
SPIRALE A               
1 33751U 09008C   18114.40699601  .00000001  00000-0  95653-4 0  9999
2 33751   2.0257 229.1871 5468845 304.1100  15.4263  4.58680919125140
SPIRALE B               
1 33752U 09008D   18112.70861186  .00002722  00000-0  60344-3 0  9990
2 33752   1.8478 197.2205 6947669 356.5371   0.5202  2.71517745 83237
SAPPHIRE                
1 39088U 13009C   18114.13103520 -.00000001  00000-0  15061-4 0  9990
2 39088  98.5341 318.6027 0012606  94.7748 265.4877 14.34170090269938
